ONEWEB-0080             
1 45426U 20020C   24135.54098052  .00000242  00000+0  64837-3 0  9991
2 45426  87.8983 172.9876 0002435 101.6948 258.4453 13.11333718202623
ONEWEB-0090             
1 45427U 20020D   24135.48217687  .00000502  00000+0  13801-2 0  9995
2 45427  87.8987 172.9812 0002147  94.3906 265.7467 13.11421243202571
ONEWEB-0061             
1 45428U 20020E   24135.51452380 -.00000536  00000+0 -15469-2 0  9992
2 45428  87.8982 172.9745 0002082  96.6707 263.4657 13.11445243202532
ONEWEB-0081             
1 45429U 20020F   24135.49540258  .00000057  00000+0  12552-3 0  9999
2 45429  87.8981 172.9956 0001971 101.9542 258.1807 13.11362261202647
ONEWEB-0069             
1 45430U 20020G   24135.56177676  .00000461  00000+0  12655-2 0  9991
2 45430  87.8983 172.9711 0002189  94.8154 265.3224 13.11408865202588
ONEWEB-0064             
1 45433U 20020K   24135.37845107 -.00000105  00000+0 -33289-3 0  9998
2 45433  87.8987 173.0236 0002397  92.4079 267.7323 13.11376694202579
